{
  "type": "FeatureCollection",
  "features": [
    {
      "type": "Feature",
      "properties": {
        "norad_id": 38060,
        "name": "COSMOS 2251 DEB",
        "group": "cosmos-2251-debris",
        "lat": 11.749129066165633,
        "lon": -75.82174730859126,
        "alt_km": 641.3571122187623,
        "timestamp": "2025-12-20T07:33:51.210980+00:00",
        "meta_object_name": "COSMOS 2251 DEB",
        "meta_object_id": "1993-036BRS",
        "meta_epoch": "2025-12-18T12:51:56.479104",
        "meta_mean_motion": 14.63889679,
        "meta_eccentricity": 0.00583817,
        "meta_inclination": 74.0432,
        "meta_ra_of_asc_node": 284.1799,
        "meta_arg_of_pericenter": 28.687,
        "meta_mean_anomaly": 331.7487,
        "meta_ephemeris_type": 0,
        "meta_classification_type": "U",
        "meta_norad_cat_id": 38060,
        "meta_element_set_no": 999,
        "meta_rev_at_epoch": 72049,
        "meta_bstar": 0.00043764509,
        "meta_mean_motion_dot": 2.314e-05,
        "meta_mean_motion_ddot": 0,
        "tle_line1": "1 38060U 93036BRS 25352.53607036  .00002314  00000+0  43765-3 0  9992",
        "tle_line2": "2 38060  74.0432 284.1799 0058381  28.6870 331.7487 14.63889679720491"
      },
      "geometry": {
        "type": "Point",
        "coordinates": [
          -75.82174730859126,
          11.749129066165633
        ]
      }
    },
    {
      "type": "Feature",
      "properties": {
        "norad_id": 38062,
        "name": "COSMOS 2251 DEB",
        "group": "cosmos-2251-debris",
        "lat": 64.41951795783602,
        "lon": 58.36378532939555,
        "alt_km": 571.6049157822736,
        "timestamp": "2025-12-20T07:33:51.210990+00:00",
        "meta_object_name": "COSMOS 2251 DEB",
        "meta_object_id": "1993-036BRU",
        "meta_epoch": "2025-12-17T02:04:28.793568",
        "meta_mean_motion": 14.95076851,
        "meta_eccentricity": 0.00127653,
        "meta_inclination": 74.0085,
        "meta_ra_of_asc_node": 281.6883,
        "meta_arg_of_pericenter": 50.5623,
        "meta_mean_anomaly": 328.1429,
        "meta_ephemeris_type": 0,
        "meta_classification_type": "U",
        "meta_norad_cat_id": 38062,
        "meta_element_set_no": 999,
        "meta_rev_at_epoch": 63095,
        "meta_bstar": 0.0018936514,
        "meta_mean_motion_dot": 0.00020809,
        "meta_mean_motion_ddot": 0,
        "tle_line1": "1 38062U 93036BRU 25351.08644437  .00020809  00000+0  18937-2 0  9990",
        "tle_line2": "2 38062  74.0085 281.6883 0012765  50.5623 328.1429 14.95076851630951"
      },
      "geometry": {
        "type": "Point",
        "coordinates": [
          58.36378532939555,
          64.41951795783602
        ]
      }
    },
    {
      "type": "Feature",
      "properties": {
        "norad_id": 38064,
        "name": "COSMOS 2251 DEB",
        "group": "cosmos-2251-debris",
        "lat": 50.65787333281279,
        "lon": 130.2120620965157,
        "alt_km": 733.2312018804005,
        "timestamp": "2025-12-20T07:33:51.211000+00:00",
        "meta_object_name": "COSMOS 2251 DEB",
        "meta_object_id": "1993-036BRW",
        "meta_epoch": "2025-12-19T18:07:41.080512",
        "meta_mean_motion": 14.56354752,
        "meta_eccentricity": 0.0047209,
        "meta_inclination": 74.0226,
        "meta_ra_of_asc_node": 110.8167,
        "meta_arg_of_pericenter": 229.1842,
        "meta_mean_anomaly": 130.5224,
        "meta_ephemeris_type": 0,
        "meta_classification_type": "U",
        "meta_norad_cat_id": 38064,
        "meta_element_set_no": 999,
        "meta_rev_at_epoch": 71967,
        "meta_bstar": 0.00064457855,
        "meta_mean_motion_dot": 2.872e-05,
        "meta_mean_motion_ddot": 0,
        "tle_line1": "1 38064U 93036BRW 25353.75533658  .00002872  00000+0  64458-3 0  9990",
        "tle_line2": "2 38064  74.0226 110.8167 0047209 229.1842 130.5224 14.56354752719677"
      },
      "geometry": {
        "type": "Point",
        "coordinates": [
          130.2120620965157,
          50.65787333281279
        ]
      }
    },
    {
      "type": "Feature",
      "properties": {
        "norad_id": 38067,
        "name": "COSMOS 2251 DEB",
        "group": "cosmos-2251-debris",
        "lat": 13.630289160477993,
        "lon": 76.02272179915208,
        "alt_km": 714.4003143134978,
        "timestamp": "2025-12-20T07:33:51.211010+00:00",
        "meta_object_name": "COSMOS 2251 DEB",
        "meta_object_id": "1993-036BRZ",
        "meta_epoch": "2025-12-14T13:35:01.091904",
        "meta_mean_motion": 14.61135602,
        "meta_eccentricity": 0.00694851,
        "meta_inclination": 74.0173,
        "meta_ra_of_asc_node": 271.0073,
        "meta_arg_of_pericenter": 58.167,
        "meta_mean_anomaly": 117.7661,
        "meta_ephemeris_type": 0,
        "meta_classification_type": "U",
        "meta_norad_cat_id": 38067,
        "meta_element_set_no": 999,
        "meta_rev_at_epoch": 62582,
        "meta_bstar": 0.00041702153,
        "meta_mean_motion_dot": 2.092e-05,
        "meta_mean_motion_ddot": 0,
        "tle_line1": "1 38067U 93036BRZ 25348.56598486  .00002092  00000+0  41702-3 0  9997",
        "tle_line2": "2 38067  74.0173 271.0073 0069485  58.1670 117.7661 14.61135602625828"
      },
      "geometry": {
        "type": "Point",
        "coordinates": [
          76.02272179915208,
          13.630289160477993
        ]
      }
    },
    {
      "type": "Feature",
      "properties": {
        "norad_id": 38068,
        "name": "COSMOS 2251 DEB",
        "group": "cosmos-2251-debris",
        "lat": -35.18485431261446,
        "lon": -77.31630956987898,
        "alt_km": 768.5838287095921,
        "timestamp": "2025-12-20T07:33:51.211020+00:00",
        "meta_object_name": "COSMOS 2251 DEB",
        "meta_object_id": "1993-036BSA",
        "meta_epoch": "2025-11-26T00:12:22.263264",
        "meta_mean_motion": 14.35960004,
        "meta_eccentricity": 0.00240903,
        "meta_inclination": 74.0219,
        "meta_ra_of_asc_node": 338.9788,
        "meta_arg_of_pericenter": 72.1007,
        "meta_mean_anomaly": 288.2769,
        "meta_ephemeris_type": 0,
        "meta_classification_type": "U",
        "meta_norad_cat_id": 38068,
        "meta_element_set_no": 999,
        "meta_rev_at_epoch": 66406,
        "meta_bstar": 0.00028750999,
        "meta_mean_motion_dot": 8.11e-06,
        "meta_mean_motion_ddot": 0,
        "tle_line1": "1 38068U 93036BSA 25330.00859101  .00000811  00000+0  28751-3 0  9998",
        "tle_line2": "2 38068  74.0219 338.9788 0024090  72.1007 288.2769 14.35960004664064"
      },
      "geometry": {
        "type": "Point",
        "coordinates": [
          -77.31630956987898,
          -35.18485431261446
        ]
      }
    },
    {
      "type": "Feature",
      "properties": {
        "norad_id": 38197,
        "name": "COSMOS 2251 DEB",
        "group": "cosmos-2251-debris",
        "lat": -73.05637349354595,
        "lon": -88.87422322916396,
        "alt_km": 606.216714501159,
        "timestamp": "2025-12-20T07:33:51.211030+00:00",
        "meta_object_name": "COSMOS 2251 DEB",
        "meta_object_id": "1993-036BSM",
        "meta_epoch": "2025-12-19T05:53:32.639424",
        "meta_mean_motion": 14.74334957,
        "meta_eccentricity": 0.0125223,
        "meta_inclination": 73.937,
        "meta_ra_of_asc_node": 344.2677,
        "meta_arg_of_pericenter": 220.1663,
        "meta_mean_anomaly": 139.0206,
        "meta_ephemeris_type": 0,
        "meta_classification_type": "U",
        "meta_norad_cat_id": 38197,
        "meta_element_set_no": 999,
        "meta_rev_at_epoch": 85851,
        "meta_bstar": 0.0022874,
        "meta_mean_motion_dot": 0.00017202,
        "meta_mean_motion_ddot": 0,
        "tle_line1": "1 38197U 93036BSM 25353.24551666  .00017202  00000+0  22874-2 0  9998",
        "tle_line2": "2 38197  73.9370 344.2677 0125223 220.1663 139.0206 14.74334957858512"
      },
      "geometry": {
        "type": "Point",
        "coordinates": [
          -88.87422322916396,
          -73.05637349354595
        ]
      }
    },
    {
      "type": "Feature",
      "properties": {
        "norad_id": 38199,
        "name": "COSMOS 2251 DEB",
        "group": "cosmos-2251-debris",
        "lat": -36.798808229535496,
        "lon": 37.31265701239517,
        "alt_km": 757.2791443878623,
        "timestamp": "2025-12-20T07:33:51.211039+00:00",
        "meta_object_name": "COSMOS 2251 DEB",
        "meta_object_id": "1993-036BSP",
        "meta_epoch": "2025-12-18T20:33:26.116992",
        "meta_mean_motion": 13.64802181,
        "meta_eccentricity": 0.0369926,
        "meta_inclination": 73.9559,
        "meta_ra_of_asc_node": 52.1388,
        "meta_arg_of_pericenter": 337.4029,
        "meta_mean_anomaly": 21.1146,
        "meta_ephemeris_type": 0,
        "meta_classification_type": "U",
        "meta_norad_cat_id": 38199,
        "meta_element_set_no": 999,
        "meta_rev_at_epoch": 61105,
        "meta_bstar": 0.00049100524,
        "meta_mean_motion_dot": 6.08e-06,
        "meta_mean_motion_ddot": 0,
        "tle_line1": "1 38199U 93036BSP 25352.85655228  .00000608  00000+0  49101-3 0  9990",
        "tle_line2": "2 38199  73.9559  52.1388 0369926 337.4029  21.1146 13.64802181611052"
      },
      "geometry": {
        "type": "Point",
        "coordinates": [
          37.31265701239517,
          -36.798808229535496
        ]
      }
    }
  ]
}